start=new Date('2021-12-11T00:00:00.000Z').valueOf();
sats=[{"CLASSIFICATION_TYPE":"U","SITE":"AFETR","EPHEMERIS_TYPE":"0","MEAN_MOTION_DDOT":"0.0000000000000","RCS_SIZE":"LARGE","APOAPSIS":"548.593","MEAN_MOTION":"15.06398103","OBJECT_NAME":"STARLINK-1281","EPOCH":"2021-12-11T00:12:49.322016","FILE":"3236957","ARG_OF_PERICENTER":"56.6031","ECCENTRICITY":"0.00019840","NORAD_CAT_ID":"45370","ELEMENT_SET_NO":"999","SEMIMAJOR_AXIS":"6925.354","OBJECT_TYPE":"PAYLOAD","TLE_LINE2":"2 45370  53.0545 283.3980 0001984  56.6031 303.5148 15.06398103 96138","LAUNCH_DATE":"2020-03-18","RA_OF_ASC_NODE":"283.3980","MEAN_ANOMALY":"303.5148","REV_AT_EPOCH":"9613","TIME_SYSTEM":"UTC","BSTAR":"0.00007858000000","PERIAPSIS":"545.845","INCLINATION":"53.0545","GP_ID":"191435341","PERIOD":"95.592","REF_FRAME":"TEME","COUNTRY_CODE":"US","CENTER_NAME":"EARTH","OBJECT_ID":"2020-019L","MEAN_MOTION_DOT":"0.00000889","TLE_LINE1":"1 45370U 20019L   21345.00890419  .00000889  00000-0  78580-4 0  9994","MEAN_ELEMENT_THEORY":"SGP4","DECAY_DATE":null},{"ARG_OF_PERICENTER":"54.9515","FILE":"3236672","EPOCH":"2021-12-10T13:46:30.778176","NORAD_CAT_ID":"45371","ECCENTRICITY":"0.00022790","SEMIMAJOR_AXIS":"6925.364","ELEMENT_SET_NO":"999","RA_OF_ASC_NODE":"285.3538","TLE_LINE2":"2 45371  53.0535 285.3538 0002279  54.9515 305.1687 15.06395028 96099","OBJECT_TYPE":"PAYLOAD","LAUNCH_DATE":"2020-03-18","SITE":"AFETR","EPHEMERIS_TYPE":"0","CLASSIFICATION_TYPE":"U","APOAPSIS":"548.807","RCS_SIZE":"LARGE","MEAN_MOTION_DDOT":"0.0000000000000","OBJECT_NAME":"STARLINK-1287","MEAN_MOTION":"15.06395028","GP_ID":"191425866","INCLINATION":"53.0535","CENTER_NAME":"EARTH","OBJECT_ID":"2020-019M","COUNTRY_CODE":"US","REF_FRAME":"TEME","PERIOD":"95.592","MEAN_ELEMENT_THEORY":"SGP4","TLE_LINE1":"1 45371U 20019M   21344.57396734  .00001426  00000-0  11466-3 0  9994","MEAN_MOTION_DOT":"0.00001426","DECAY_DATE":null,"MEAN_ANOMALY":"305.1687","BSTAR":"0.00011466000000","REV_AT_EPOCH":"9609","TIME_SYSTEM":"UTC","PERIAPSIS":"545.651"},{"REV_AT_EPOCH":"9615","TIME_SYSTEM":"UTC","BSTAR":"-0.00003786000000","MEAN_ANOMALY":"298.3736","PERIAPSIS":"545.759","PERIOD":"95.592","REF_FRAME":"TEME","COUNTRY_CODE":"US","CENTER_NAME":"EARTH","OBJECT_ID":"2020-019N","GP_ID":"191435688","INCLINATION":"53.0553","DECAY_DATE":null,"MEAN_MOTION_DOT":"-0.00000846","TLE_LINE1":"1 45372U 20019N   21344.98679269 -.00000846  00000-0 -37860-4 0  9991","MEAN_ELEMENT_THEORY":"SGP4","CLASSIFICATION_TYPE":"U","SITE":"AFETR","EPHEMERIS_TYPE":"0","MEAN_MOTION":"15.06396904","OBJECT_NAME":"STARLINK-1288","MEAN_MOTION_DDOT":"0.0000000000000","RCS_SIZE":"LARGE","APOAPSIS":"548.687","ECCENTRICITY":"0.00021140","NORAD_CAT_ID":"45372","EPOCH":"2021-12-10T23:40:58.888416","FILE":"3236947","ARG_OF_PERICENTER":"61.7466","TLE_LINE2":"2 45372  53.0553 283.5141 0002114  61.7466 298.3736 15.06396904 96158","LAUNCH_DATE":"2020-03-18","OBJECT_TYPE":"PAYLOAD","RA_OF_ASC_NODE":"283.5141","ELEMENT_SET_NO":"999","SEMIMAJOR_AXIS":"6925.358"},{"PERIAPSIS":"545.583","REV_AT_EPOCH":"9615","TIME_SYSTEM":"UTC","BSTAR":"0.00008906500000","MEAN_ANOMALY":"306.0515","DECAY_DATE":null,"MEAN_MOTION_DOT":"0.00001045","TLE_LINE1":"1 45373U 20019P   21344.96835963  .00001045  00000-0  89065-4 0  9999","MEAN_ELEMENT_THEORY":"SGP4","REF_FRAME":"TEME","PERIOD":"95.592","COUNTRY_CODE":"US","CENTER_NAME":"EARTH","OBJECT_ID":"2020-019P","INCLINATION":"53.0543","GP_ID":"191434016","MEAN_MOTION":"15.06400160","OBJECT_NAME":"STARLINK-1295","MEAN_MOTION_DDOT":"0.0000000000000","RCS_SIZE":"LARGE","APOAPSIS":"548.843","CLASSIFICATION_TYPE":"U","SITE":"AFETR","EPHEMERIS_TYPE":"0","OBJECT_TYPE":"PAYLOAD","TLE_LINE2":"2 45373  53.0543 283.5912 0002354  54.0692 306.0515 15.06400160 96158","LAUNCH_DATE":"2020-03-18","RA_OF_ASC_NODE":"283.5912","ELEMENT_SET_NO":"999","SEMIMAJOR_AXIS":"6925.348","ECCENTRICITY":"0.00023540","NORAD_CAT_ID":"45373","EPOCH":"2021-12-10T23:14:26.272032","FILE":"3236889","ARG_OF_PERICENTER":"54.0692"},{"GP_ID":"191425616","INCLINATION":"53.0543","PERIOD":"95.593","REF_FRAME":"TEME","CENTER_NAME":"EARTH","OBJECT_ID":"2020-019Q","COUNTRY_CODE":"US","MEAN_MOTION_DOT":"-0.00000751","MEAN_ELEMENT_THEORY":"SGP4","TLE_LINE1":"1 45374U 20019Q   21344.56660356 -.00000751  00000-0 -31508-4 0  9992","DECAY_DATE":null,"MEAN_ANOMALY":"300.6868","REV_AT_EPOCH":"9609","TIME_SYSTEM":"UTC","BSTAR":"-0.00003150800000","PERIAPSIS":"545.603","FILE":"3236672","EPOCH":"2021-12-10T13:35:54.547584","ARG_OF_PERICENTER":"59.4355","NORAD_CAT_ID":"45374","ECCENTRICITY":"0.00023680","ELEMENT_SET_NO":"999","SEMIMAJOR_AXIS":"6925.378","RA_OF_ASC_NODE":"285.3962","TLE_LINE2":"2 45374  53.0543 285.3962 0002368  59.4355 300.6868 15.06390258 96094","OBJECT_TYPE":"PAYLOAD","LAUNCH_DATE":"2020-03-18","CLASSIFICATION_TYPE":"U","EPHEMERIS_TYPE":"0","SITE":"AFETR","RCS_SIZE":"LARGE","MEAN_MOTION_DDOT":"0.0000000000000","APOAPSIS":"548.883","MEAN_MOTION":"15.06390258","OBJECT_NAME":"STARLINK-1300"},{"CLASSIFICATION_TYPE":"U","EPHEMERIS_TYPE":"0","SITE":"AFETR","RCS_SIZE":"LARGE","MEAN_MOTION_DDOT":"0.0000000000000","APOAPSIS":"548.667","MEAN_MOTION":"15.06401351","OBJECT_NAME":"STARLINK-1302","FILE":"3237005","EPOCH":"2021-12-10T15:32:39.936480","ARG_OF_PERICENTER":"60.5949","NORAD_CAT_ID":"45375","ECCENTRICITY":"0.00021050","ELEMENT_SET_NO":"999","SEMIMAJOR_AXIS":"6925.344","RA_OF_ASC_NODE":"285.0372","TLE_LINE2":"2 45375  53.0555 285.0372 0002105  60.5949 299.5250 15.06401351 96101","OBJECT_TYPE":"PAYLOAD","LAUNCH_DATE":"2020-03-18","MEAN_ANOMALY":"299.5250","REV_AT_EPOCH":"9610","TIME_SYSTEM":"UTC","BSTAR":"0.00009580900000","PERIAPSIS":"545.752","GP_ID":"191456870","INCLINATION":"53.0555","PERIOD":"95.592","REF_FRAME":"TEME","CENTER_NAME":"EARTH","OBJECT_ID":"2020-019R","COUNTRY_CODE":"US","MEAN_MOTION_DOT":"0.00001146","MEAN_ELEMENT_THEORY":"SGP4","TLE_LINE1":"1 45375U 20019R   21344.64768445  .00001146  00000-0  95809-4 0  9991","DECAY_DATE":null},{"MEAN_MOTION_DOT":"0.00001019","MEAN_ELEMENT_THEORY":"SGP4","TLE_LINE1":"1 45376U 20019S   21344.99784231  .00001019  00000-0  87304-4 0  9991","DECAY_DATE":null,"GP_ID":"191435407","INCLINATION":"53.0555","PERIOD":"95.592","REF_FRAME":"TEME","CENTER_NAME":"EARTH","OBJECT_ID":"2020-019S","COUNTRY_CODE":"US","PERIAPSIS":"545.780","MEAN_ANOMALY":"294.7453","REV_AT_EPOCH":"9615","TIME_SYSTEM":"UTC","BSTAR":"0.00008730400000","ELEMENT_SET_NO":"999","SEMIMAJOR_AXIS":"6925.344","RA_OF_ASC_NODE":"283.4633","LAUNCH_DATE":"2020-03-18","TLE_LINE2":"2 45376  53.0555 283.4633 0002063  65.3750 294.7453 15.06401577 96157","OBJECT_TYPE":"PAYLOAD","FILE":"3236950","EPOCH":"2021-12-10T23:56:53.575584","ARG_OF_PERICENTER":"65.3750","NORAD_CAT_ID":"45376","ECCENTRICITY":"0.00020630","RCS_SIZE":"LARGE","MEAN_MOTION_DDOT":"0.0000000000000","APOAPSIS":"548.637","MEAN_MOTION":"15.06401577","OBJECT_NAME":"STARLINK-1304","CLASSIFICATION_TYPE":"U","EPHEMERIS_TYPE":"0","SITE":"AFETR"},{"OBJECT_NAME":"STARLINK-1305","MEAN_MOTION":"15.06392402","APOAPSIS":"548.763","RCS_SIZE":"LARGE","MEAN_MOTION_DDOT":"0.0000000000000","SITE":"AFETR","EPHEMERIS_TYPE":"0","CLASSIFICATION_TYPE":"U","RA_OF_ASC_NODE":"285.4267","TLE_LINE2":"2 45377  53.0543 285.4267 0002203  59.2188 300.9018 15.06392402 96099","OBJECT_TYPE":"PAYLOAD","LAUNCH_DATE":"2020-03-18","SEMIMAJOR_AXIS":"6925.372","ELEMENT_SET_NO":"999","NORAD_CAT_ID":"45377","ECCENTRICITY":"0.00022030","ARG_OF_PERICENTER":"59.2188","FILE":"3236672","EPOCH":"2021-12-10T13:25:17.526432","PERIAPSIS":"545.711","BSTAR":"-0.00003744400000","REV_AT_EPOCH":"9609","TIME_SYSTEM":"UTC","MEAN_ANOMALY":"300.9018","DECAY_DATE":null,"MEAN_ELEMENT_THEORY":"SGP4","TLE_LINE1":"1 45377U 20019T   21344.55923063 -.00000839  00000-0 -37444-4 0  9993","MEAN_MOTION_DOT":"-0.00000839","CENTER_NAME":"EARTH","OBJECT_ID":"2020-019T","COUNTRY_CODE":"US","REF_FRAME":"TEME","PERIOD":"95.593","INCLINATION":"53.0543","GP_ID":"191425364"},{"NORAD_CAT_ID":"45378","ECCENTRICITY":"0.00021650","ARG_OF_PERICENTER":"60.6874","FILE":"3237005","EPOCH":"2021-12-10T22:42:36.349056","RA_OF_ASC_NODE":"283.6975","TLE_LINE2":"2 45378  53.0556 283.6975 0002165  60.6874 299.4331 15.06393341 96155","OBJECT_TYPE":"PAYLOAD","LAUNCH_DATE":"2020-03-18","SEMIMAJOR_AXIS":"6925.369","ELEMENT_SET_NO":"999","SITE":"AFETR","EPHEMERIS_TYPE":"0","CLASSIFICATION_TYPE":"U","OBJECT_NAME":"STARLINK-1310","MEAN_MOTION":"15.06393341","APOAPSIS":"548.733","RCS_SIZE":"LARGE","MEAN_MOTION_DDOT":"0.0000000000000","CENTER_NAME":"EARTH","OBJECT_ID":"2020-019U","COUNTRY_CODE":"US","PERIOD":"95.593","REF_FRAME":"TEME","GP_ID":"191456119","INCLINATION":"53.0556","DECAY_DATE":null,"MEAN_ELEMENT_THEORY":"SGP4","TLE_LINE1":"1 45378U 20019U   21344.94625404 -.00000706  00000-0 -28476-4 0  9993","MEAN_MOTION_DOT":"-0.00000706","BSTAR":"-0.00002847600000","REV_AT_EPOCH":"9615","TIME_SYSTEM":"UTC","MEAN_ANOMALY":"299.4331","PERIAPSIS":"545.735"},{"FILE":"3237005","EPOCH":"2021-12-10T21:12:22.100832","ARG_OF_PERICENTER":"57.2424","NORAD_CAT_ID":"45379","ECCENTRICITY":"0.00020530","ELEMENT_SET_NO":"999","SEMIMAJOR_AXIS":"6925.377","RA_OF_ASC_NODE":"283.9738","TLE_LINE2":"2 45379  53.0542 283.9738 0002053  57.2424 302.8763 15.06390632 96147","LAUNCH_DATE":"2020-03-18","OBJECT_TYPE":"PAYLOAD","CLASSIFICATION_TYPE":"U","EPHEMERIS_TYPE":"0","SITE":"AFETR","RCS_SIZE":"LARGE","MEAN_MOTION_DDOT":"0.0000000000000","APOAPSIS":"548.664","MEAN_MOTION":"15.06390632","OBJECT_NAME":"STARLINK-1319","GP_ID":"191457371","INCLINATION":"53.0542","PERIOD":"95.593","REF_FRAME":"TEME","OBJECT_ID":"2020-019V","CENTER_NAME":"EARTH","COUNTRY_CODE":"US","MEAN_MOTION_DOT":"0.00000851","MEAN_ELEMENT_THEORY":"SGP4","TLE_LINE1":"1 45379U 20019V   21344.88358913  .00000851  00000-0  76043-4 0  9997","DECAY_DATE":null,"MEAN_ANOMALY":"302.8763","REV_AT_EPOCH":"9614","TIME_SYSTEM":"UTC","BSTAR":"0.00007604300000","PERIAPSIS":"545.820"}];
